{
  "links" : {
    "next" : "https://api.nasa.gov/neo/rest/v1/feed?start_date=2001-01-23&end_date=2001-01-23&detailed=true&api_key=t0TVs3DtDT2H8Oy2Zy8m2eVrNsAVKAexjcZXUckd",
    "prev" : "https://api.nasa.gov/neo/rest/v1/feed?start_date=2001-01-21&end_date=2001-01-21&detailed=true&api_key=t0TVs3DtDT2H8Oy2Zy8m2eVrNsAVKAexjcZXUckd",
    "self" : "https://api.nasa.gov/neo/rest/v1/feed?start_date=2001-01-22&end_date=2001-01-22&detailed=true&api_key=t0TVs3DtDT2H8Oy2Zy8m2eVrNsAVKAexjcZXUckd"
  },
  "element_count" : 5,
  "near_earth_objects" : {
    "2001-01-22" : [ {
      "links" : {
        "self" : "https://api.nasa.gov/neo/rest/v1/neo/3072405?api_key=t0TVs3DtDT2H8Oy2Zy8m2eVrNsAVKAexjcZXUckd"
      },
      "neo_reference_id" : "3072405",
      "name" : "(2001 BO60)",
      "nasa_jpl_url" : "http://ssd.jpl.nasa.gov/sbdb.cgi?sstr=3072405",
      "absolute_magnitude_h" : 19.3,
      "estimated_diameter" : {
        "kilometers" : {
          "estimated_diameter_min" : 0.3669061375,
          "estimated_diameter_max" : 0.8204270649
        },
        "meters" : {
          "estimated_diameter_min" : 366.9061375314,
          "estimated_diameter_max" : 820.4270648822
        },
        "miles" : {
          "estimated_diameter_min" : 0.2279848336,
          "estimated_diameter_max" : 0.5097895857
        },
        "feet" : {
          "estimated_diameter_min" : 1203.7603322587,
          "estimated_diameter_max" : 2691.6899315481
        }
      },
      "is_potentially_hazardous_asteroid" : false,
      "close_approach_data" : [ {
        "close_approach_date" : "2001-01-22",
        "epoch_date_close_approach" : 980150400000,
        "relative_velocity" : {
          "kilometers_per_second" : "18.0463287487",
          "kilometers_per_hour" : "64966.7834954424",
          "miles_per_hour" : "40367.8327780431"
        },
        "miss_distance" : {
          "astronomical" : "0.4512733689",
          "lunar" : "175.5453491211",
          "kilometers" : "67509536",
          "miles" : "41948480"
        },
        "orbiting_body" : "Earth"
      } ],
      "orbital_data" : {
        "orbit_id" : "25",
        "orbit_determination_date" : "2017-04-06 09:16:34",
        "orbit_uncertainty" : "2",
        "minimum_orbit_intersection" : ".435734",
        "jupiter_tisserand_invariant" : "4.091",
        "epoch_osculation" : "2458000.5",
        "eccentricity" : ".2640045753637797",
        "semi_major_axis" : "1.615508430829471",
        "inclination" : "35.93758048546763",
        "ascending_node_longitude" : "291.3024452340196",
        "orbital_period" : "750.0017384882799",
        "perihelion_distance" : "1.18900681355173",
        "perihelion_argument" : "265.5011781835454",
        "aphelion_distance" : "2.042010048107212",
        "perihelion_time" : "2458033.618609449744",
        "mean_anomaly" : "344.1031043128786",
        "mean_motion" : ".4799988873700799",
        "equinox" : "J2000"
      }
    }, {
      "links" : {
        "self" : "https://api.nasa.gov/neo/rest/v1/neo/3154493?api_key=t0TVs3DtDT2H8Oy2Zy8m2eVrNsAVKAexjcZXUckd"
      },
      "neo_reference_id" : "3154493",
      "name" : "(2003 JV14)",
      "nasa_jpl_url" : "http://ssd.jpl.nasa.gov/sbdb.cgi?sstr=3154493",
      "absolute_magnitude_h" : 21.5,
      "estimated_diameter" : {
        "kilometers" : {
          "estimated_diameter_min" : 0.1332155667,
          "estimated_diameter_max" : 0.2978790628
        },
        "meters" : {
          "estimated_diameter_min" : 133.2155666981,
          "estimated_diameter_max" : 297.8790627982
        },
        "miles" : {
          "estimated_diameter_min" : 0.0827762899,
          "estimated_diameter_max" : 0.1850934111
        },
        "feet" : {
          "estimated_diameter_min" : 437.0589598459,
          "estimated_diameter_max" : 977.2935443908
        }
      },
      "is_potentially_hazardous_asteroid" : false,
      "close_approach_data" : [ {
        "close_approach_date" : "2001-01-22",
        "epoch_date_close_approach" : 980150400000,
        "relative_velocity" : {
          "kilometers_per_second" : "14.9723736175",
          "kilometers_per_hour" : "53900.5450230724",
          "miles_per_hour" : "33491.7025450307"
        },
        "miss_distance" : {
          "astronomical" : "0.2940685421",
          "lunar" : "114.3926620483",
          "kilometers" : "43992028",
          "miles" : "27335380"
        },
        "orbiting_body" : "Earth"
      } ],
      "orbital_data" : {
        "orbit_id" : "15",
        "orbit_determination_date" : "2017-04-06 09:14:05",
        "orbit_uncertainty" : "6",
        "minimum_orbit_intersection" : ".0676834",
        "jupiter_tisserand_invariant" : "4.094",
        "epoch_osculation" : "2458000.5",
        "eccentricity" : ".5786881471562696",
        "semi_major_axis" : "1.634034457342761",
        "inclination" : "5.459084185067043",
        "ascending_node_longitude" : "99.03780904521837",
        "orbital_period" : "762.9397495408721",
        "perihelion_distance" : ".6884380848335784",
        "perihelion_argument" : "33.27118128393283",
        "aphelion_distance" : "2.579630829851944",
        "perihelion_time" : "2458040.572749768974",
        "mean_anomaly" : "341.0913116985814",
        "mean_motion" : ".4718590166741786",
        "equinox" : "J2000"
      }
    } ]
  }
}